STARLINK-30488          
1 57931U 23147U   26068.11703680 -.00000399  00000+0 -14490-4 0  9994
2 57931  43.0042 329.0116 0000967 275.0886  84.9846 15.02537293136534
PICO-02A021             
1 60538U 24149BY  26068.15390193  .00008488  00000+0  64833-3 0  9999
2 60538  97.6823 147.9080 0004195   9.5557 350.5747 15.02201963 84718
